OBJECT_NAME,OBJECT_ID,EPOCH,MEAN_MOTION,ECCENTRICITY,INCLINATION,RA_OF_ASC_NODE,ARG_OF_PERICENTER,MEAN_ANOMALY,EPHEMERIS_TYPE,CLASSIFICATION_TYPE,NORAD_CAT_ID,ELEMENT_SET_NO,REV_AT_EPOCH,BSTAR,MEAN_MOTION_DOT,MEAN_MOTION_DDOT
PAKSAT-1R,2011-042A,2026-07-04T14:04:04.399392,1.00275481,.00031872,0.7313,84.4541,355.4117,91.7445,0,U,37779,999,5465,0,.166E-5,0
SES-2,2011-049A,2026-07-04T13:28:30.309888,1.00272074,.00029443,0.1006,92.6603,9.4949,295.5459,0,U,37809,999,5413,0,-.184E-5,0
ARABSAT-5C,2011-049B,2026-07-04T13:58:57.389952,1.00272924,.00034703,0.0550,27.5282,93.2459,31.5411,0,U,37810,999,5421,0,.136E-5,0
EUTELSAT 7 WEST A,2011-051A,2026-07-04T13:51:13.131648,1.00271444,.00046671,0.0609,11.3022,103.1991,8.5743,0,U,37816,999,5405,0,-.48E-6,0
QUETZSAT 1,2011-054A,2026-07-02T13:36:35.681760,1.00271106,.0002997,0.0341,293.4838,173.6787,300.5957,0,U,37826,999,5002,0,-.231E-5,0
INTELSAT 18 (IS-18),2011-056A,2026-07-04T13:01:57.781632,1.00271859,.00019741,0.0229,286.0165,184.6892,187.3305,0,U,37834,999,5398,0,.65E-6,0
EUTELSAT 16A,2011-057A,2026-07-04T13:57:49.997952,1.00269677,.00057992,0.0399,344.7104,115.3010,48.0316,0,U,37836,999,751,0,.116E-5,0
VIASAT-1,2011-059A,2026-07-02T20:31:30.243360,1.00270964,.00023173,0.0211,26.3466,77.4105,9.9113,0,U,37843,999,4748,0,0,0
ASIASAT 7,2011-069A,2026-07-04T14:23:21.584832,1.00270627,.00013799,0.0136,310.9720,131.9217,161.0719,0,U,37933,999,4503,0,-.321E-5,0
BEIDOU-2 IGSO-5,2011-073A,2026-07-02T17:30:18.330912,1.00270596,.01145273,47.6496,271.3544,222.0502,141.5350,0,U,37948,999,5329,0,-.128E-5,0
LUCH-5A,2011-074B,2026-07-04T11:15:36.109152,1.00272700,.0002653,8.7947,73.5558,46.7626,138.0082,0,U,37951,999,5322,0,-.41E-6,0
NIGCOMSAT 1R,2011-077A,2026-07-04T14:05:26.767968,1.00272479,.00025496,0.0056,306.0966,48.5426,181.7957,0,U,38014,999,5313,0,.157E-5,0
WGS F4 (USA 233),2012-003A,2026-07-02T19:10:59.943360,1.00267905,.00016231,0.0212,33.4355,91.9508,171.6061,0,U,38070,999,4430,0,0,0
SES-4,2012-007A,2026-07-02T08:44:38.700384,1.00271083,.0002404,0.0229,41.5467,57.1982,290.8171,0,U,38087,999,5237,0,-.158E-5,0
BEIDOU-2 G5,2012-008A,2026-07-04T14:10:03.825120,1.00268131,.00076115,3.6146,69.5934,275.0919,209.1949,0,U,38091,999,5254,0,.68E-6,0
MUOS-1,2012-009A,2026-07-04T13:24:45.668160,1.00272470,.00574613,5.5109,47.1351,2.8417,333.8118,0,U,38093,999,5261,0,-.117E-5,0
INTELSAT 22 (IS-22),2012-011A,2026-07-04T12:31:14.456640,1.00271382,.00017007,0.0203,54.2927,45.9184,82.2166,0,U,38098,999,736,0,-.46E-6,0
APSTAR-7,2012-013A,2026-07-04T14:15:07.375968,1.00271917,.00033044,0.0320,87.3588,23.4978,102.0416,0,U,38107,999,5198,0,-.89E-6,0
YAHSAT 1B,2012-016A,2026-07-02T05:39:12.553344,1.00267795,.0003263,0.0892,88.9189,30.5528,293.2016,0,U,38245,999,4575,0,.137E-5,0
AEHF-2 (USA 235),2012-019A,2026-07-04T10:23:11.062752,1.00273020,.00021571,6.6895,57.3618,45.0525,319.2987,0,U,38254,999,716,0,-.126E-5,0
JCSAT-13,2012-023A,2026-07-03T23:04:46.368192,1.00274157,.00029174,0.0151,38.3190,73.3880,280.4624,0,U,38331,999,5170,0,-.344E-5,0
VINASAT-2,2012-023B,2026-07-03T12:50:59.461152,1.00270214,.00024933,0.0163,341.4410,127.0027,137.7058,0,U,38332,999,4682,0,-.318E-5,0
NIMIQ 6,2012-026A,2026-07-04T13:27:15.428736,1.00271732,.00028172,0.0359,278.3033,187.7904,287.1914,0,U,38342,999,5058,0,-.161E-5,0
ZHONGXING-2A,2012-028A,2026-07-04T14:21:14.289120,1.00270855,.00019671,1.4971,83.6735,23.8911,128.5883,0,U,38352,999,5147,0,-.281E-5,0
INTELSAT 19 (IS-19),2012-030A,2026-07-04T11:15:21.131712,1.00271580,.00033237,0.0192,30.6964,82.9685,143.6507,0,U,38356,999,5062,0,-.44E-6,0
ECHOSTAR 17,2012-035A,2026-07-03T21:58:48.982080,1.00271043,.00019431,0.0187,28.8424,71.1266,44.5707,0,U,38551,999,5123,0,-.64E-6,0
METEOSAT-10 (MSG-3),2012-035B,2026-07-04T00:12:03.367584,1.00269590,.0001504,4.7088,60.9370,16.7580,207.4561,0,U,38552,999,5102,0,.3E-7,0
SES-5,2012-036A,2026-07-02T15:43:01.322688,1.00270830,.00022676,0.0450,320.1883,138.1529,63.0821,0,U,38652,999,4461,0,.44E-6,0
INTELSAT 20 (IS-20),2012-043A,2026-07-04T02:14:15.788256,1.00270704,.00012174,0.0072,61.0631,120.4399,202.6599,0,U,38740,999,5091,0,-.12E-6,0
HYLAS 2,2012-043B,2026-07-04T13:32:37.414752,1.00271960,.00026275,2.4692,80.8677,42.8912,289.3978,0,U,38741,999,5094,0,-.246E-5,0
INTELSAT 21 (IS-21),2012-045A,2026-07-04T11:54:03.022848,1.00271801,.00018669,0.0219,288.9253,189.6101,284.4917,0,U,38749,999,5069,0,-.273E-5,0
ASTRA 2F,2012-051A,2026-07-04T14:01:19.663104,1.00273067,.00024794,0.0665,251.4072,284.5165,345.2039,0,U,38778,999,4131,0,.162E-5,0
