PAKSAT-1R               
1 37779U 11042A   26185.58616203  .00000166  00000+0  00000+0 0  9995
2 37779   0.7313  84.4541 0003187 355.4117  91.7445  1.00275481 54658
SES-2                   
1 37809U 11049A   26185.56146192 -.00000184  00000+0  00000+0 0  9990
2 37809   0.1006  92.6603 0002944   9.4949 295.5459  1.00272074 54131
ARABSAT-5C              
1 37810U 11049B   26185.58260868  .00000136  00000+0  00000+0 0  9997
2 37810   0.0550  27.5282 0003470  93.2459  31.5411  1.00272924 54217
EUTELSAT 7 WEST A       
1 37816U 11051A   26185.57723532 -.00000048  00000+0  00000+0 0  9990
2 37816   0.0609  11.3022 0004667 103.1991   8.5743  1.00271444 54052
QUETZSAT 1              
1 37826U 11054A   26183.56707965 -.00000231  00000+0  00000+0 0  9997
2 37826   0.0341 293.4838 0002997 173.6787 300.5957  1.00271106 50023
INTELSAT 18 (IS-18)     
1 37834U 11056A   26185.54302988  .00000065  00000+0  00000+0 0  9998
2 37834   0.0229 286.0165 0001974 184.6892 187.3305  1.00271859 53982
EUTELSAT 16A            
1 37836U 11057A   26185.58182868  .00000116  00000+0  00000+0 0  9995
2 37836   0.0399 344.7104 0005799 115.3010  48.0316  1.00269677  7517
VIASAT-1                
1 37843U 11059A   26183.85521115  .00000000  00000+0  00000+0 0  9997
2 37843   0.0211  26.3466 0002317  77.4105   9.9113  1.00270964 47480
ASIASAT 7               
1 37933U 11069A   26185.59955538 -.00000321  00000+0  00000+0 0  9998
2 37933   0.0136 310.9720 0001379 131.9217 161.0719  1.00270627 45035
BEIDOU-2 IGSO-5         
1 37948U 11073A   26183.72937883 -.00000128  00000+0  00000+0 0  9990
2 37948  47.6496 271.3544 0114527 222.0502 141.5350  1.00270596 53296
LUCH-5A                 
1 37951U 11074B   26185.46916793 -.00000041  00000+0  00000+0 0  9999
2 37951   8.7947  73.5558 0002653  46.7626 138.0082  1.00272700 53225
NIGCOMSAT 1R            
1 38014U 11077A   26185.58711537  .00000157  00000+0  00000+0 0  9992
2 38014   0.0056 306.0966 0002549  48.5426 181.7957  1.00272479 53130
WGS F4 (USA 233)        
1 38070U 12003A   26183.79930490  .00000000  00000+0  00000+0 0  9993
2 38070   0.0212  33.4355 0001623  91.9508 171.6061  1.00267905 44305
SES-4                   
1 38087U 12007A   26183.36433681 -.00000158  00000+0  00000+0 0  9993
2 38087   0.0229  41.5467 0002404  57.1982 290.8171  1.00271083 52377
BEIDOU-2 G5             
1 38091U 12008A   26185.59032205  .00000068  00000+0  00000+0 0  9992
2 38091   3.6146  69.5934 0007611 275.0919 209.1949  1.00268131 52549
MUOS-1                  
1 38093U 12009A   26185.55886190 -.00000117  00000+0  00000+0 0  9997
2 38093   5.5109  47.1351 0057461   2.8417 333.8118  1.00272470 52615
INTELSAT 22 (IS-22)     
1 38098U 12011A   26185.52169510 -.00000046  00000+0  00000+0 0  9993
2 38098   0.0203  54.2927 0001700  45.9184  82.2166  1.00271382  7368
APSTAR-7                
1 38107U 12013A   26185.59383537 -.00000089  00000+0  00000+0 0  9997
2 38107   0.0320  87.3588 0003304  23.4978 102.0416  1.00271917 51983
YAHSAT 1B               
1 38245U 12016A   26183.23556196  .00000137  00000+0  00000+0 0  9998
2 38245   0.0892  88.9189 0003263  30.5528 293.2016  1.00267795 45754
AEHF-2 (USA 235)        
1 38254U 12019A   26185.43276693 -.00000126  00000+0  00000+0 0  9995
2 38254   6.6895  57.3618 0002157  45.0525 319.2987  1.00273020  7162
JCSAT-13                
1 38331U 12023A   26184.96164778 -.00000344  00000+0  00000+0 0  9995
2 38331   0.0151  38.3190 0002917  73.3880 280.4624  1.00274157 51705
VINASAT-2               
1 38332U 12023B   26184.53541043 -.00000318  00000+0  00000+0 0  9994
2 38332   0.0163 341.4410 0002493 127.0027 137.7058  1.00270214 46823
NIMIQ 6                 
1 38342U 12026A   26185.56059524 -.00000161  00000+0  00000+0 0  9996
2 38342   0.0359 278.3033 0002817 187.7904 287.1914  1.00271732 50582
ZHONGXING-2A            
1 38352U 12028A   26185.59808205 -.00000281  00000+0  00000+0 0  9993
2 38352   1.4971  83.6735 0001967  23.8911 128.5883  1.00270855 51474
INTELSAT 19 (IS-19)     
1 38356U 12030A   26185.46899458 -.00000044  00000+0  00000+0 0  9993
2 38356   0.0192  30.6964 0003323  82.9685 143.6507  1.00271580 50629
ECHOSTAR 17             
1 38551U 12035A   26184.91584470 -.00000064  00000+0  00000+0 0  9991
2 38551   0.0187  28.8424 0001943  71.1266  44.5707  1.00271043 51234
METEOSAT-10 (MSG-3)     
1 38552U 12035B   26185.00837231  .00000003  00000+0  00000+0 0  9991
2 38552   4.7088  60.9370 0001504  16.7580 207.4561  1.00269590 51029
SES-5                   
1 38652U 12036A   26183.65487642  .00000044  00000+0  00000+0 0  9994
2 38652   0.0450 320.1883 0002267 138.1529  63.0821  1.00270830 44612
INTELSAT 20 (IS-20)     
1 38740U 12043A   26185.09323829 -.00000012  00000+0  00000+0 0  9992
2 38740   0.0072  61.0631 0001217 120.4399 202.6599  1.00270704 50918
HYLAS 2                 
1 38741U 12043B   26185.56432193 -.00000246  00000+0  00000+0 0  9999
2 38741   2.4692  80.8677 0002627  42.8912 289.3978  1.00271960 50947
INTELSAT 21 (IS-21)     
1 38749U 12045A   26185.49586832 -.00000273  00000+0  00000+0 0  9991
2 38749   0.0219 288.9253 0001866 189.6101 284.4917  1.00271801 50694
ASTRA 2F                
1 38778U 12051A   26185.58425536  .00000162  00000+0  00000+0 0  9999
2 38778   0.0665 251.4072 0002479 284.5165 345.2039  1.00273067 41317
